CCSDS_OMM_VERS = 2.0
CREATION_DATE  = 
ORIGINATOR     = 

OBJECT_NAME    = HULIANWANG DIGUI-114
OBJECT_ID      = 2025-287A
CENTER_NAME    = EARTH
REF_FRAME      = TEME
TIME_SYSTEM    = UTC
MEAN_ELEMENT_THEORY = SGP/SGP4

EPOCH          = 2025-12-10T06:55:20.076384
MEAN_MOTION    = 13.69073793
ECCENTRICITY   = .00082441
INCLINATION    = 86.4956
RA_OF_ASC_NODE = 347.0512
ARG_OF_PERICENTER = 213.3003
MEAN_ANOMALY   = 146.7638

EPHEMERIS_TYPE = 0
CLASSIFICATION_TYPE = U
NORAD_CAT_ID   = 66953
ELEMENT_SET_NO = 999
REV_AT_EPOCH   = 19
BSTAR          = .9649594E-5
MEAN_MOTION_DOT = .25E-6
MEAN_MOTION_DDOT = 0

CCSDS_OMM_VERS = 2.0
CREATION_DATE  = 
ORIGINATOR     = 

OBJECT_NAME    = HULIANWANG DIGUI-115
OBJECT_ID      = 2025-287B
CENTER_NAME    = EARTH
REF_FRAME      = TEME
TIME_SYSTEM    = UTC
MEAN_ELEMENT_THEORY = SGP/SGP4

EPOCH          = 2025-12-10T10:25:40.434528
MEAN_MOTION    = 13.69168852
ECCENTRICITY   = .00081957
INCLINATION    = 86.4972
RA_OF_ASC_NODE = 346.9997
ARG_OF_PERICENTER = 212.0231
MEAN_ANOMALY   = 148.0431

EPHEMERIS_TYPE = 0
CLASSIFICATION_TYPE = U
NORAD_CAT_ID   = 66954
ELEMENT_SET_NO = 999
REV_AT_EPOCH   = 21
BSTAR          = .11007839E-4
MEAN_MOTION_DOT = .26E-6
MEAN_MOTION_DDOT = 0

CCSDS_OMM_VERS = 2.0
CREATION_DATE  = 
ORIGINATOR     = 

OBJECT_NAME    = HULIANWANG DIGUI-116
OBJECT_ID      = 2025-287C
CENTER_NAME    = EARTH
REF_FRAME      = TEME
TIME_SYSTEM    = UTC
MEAN_ELEMENT_THEORY = SGP/SGP4

EPOCH          = 2025-12-09T09:52:18.926688
MEAN_MOTION    = 13.69296672
ECCENTRICITY   = .00076324
INCLINATION    = 86.4914
RA_OF_ASC_NODE = 347.3632
ARG_OF_PERICENTER = 209.8722
MEAN_ANOMALY   = 150.2003

EPHEMERIS_TYPE = 0
CLASSIFICATION_TYPE = U
NORAD_CAT_ID   = 66955
ELEMENT_SET_NO = 999
REV_AT_EPOCH   = 7
BSTAR          = .3470494E-5
MEAN_MOTION_DOT = .2E-6
MEAN_MOTION_DDOT = 0

CCSDS_OMM_VERS = 2.0
CREATION_DATE  = 
ORIGINATOR     = 

OBJECT_NAME    = HULIANWANG DIGUI-117
OBJECT_ID      = 2025-287D
CENTER_NAME    = EARTH
REF_FRAME      = TEME
TIME_SYSTEM    = UTC
MEAN_ELEMENT_THEORY = SGP/SGP4

EPOCH          = 2025-12-10T08:40:06.191328
MEAN_MOTION    = 13.69398761
ECCENTRICITY   = .00070713
INCLINATION    = 86.4971
RA_OF_ASC_NODE = 347.0263
ARG_OF_PERICENTER = 199.7388
MEAN_ANOMALY   = 160.3499

EPHEMERIS_TYPE = 0
CLASSIFICATION_TYPE = U
NORAD_CAT_ID   = 66956
ELEMENT_SET_NO = 999
REV_AT_EPOCH   = 20
BSTAR          = .10798013E-4
MEAN_MOTION_DOT = .26E-6
MEAN_MOTION_DDOT = 0

CCSDS_OMM_VERS = 2.0
CREATION_DATE  = 
ORIGINATOR     = 

OBJECT_NAME    = HULIANWANG DIGUI-118
OBJECT_ID      = 2025-287E
CENTER_NAME    = EARTH
REF_FRAME      = TEME
TIME_SYSTEM    = UTC
MEAN_ELEMENT_THEORY = SGP/SGP4

EPOCH          = 2025-12-10T08:39:56.683872
MEAN_MOTION    = 13.69509074
ECCENTRICITY   = .00068996
INCLINATION    = 86.4942
RA_OF_ASC_NODE = 347.0238
ARG_OF_PERICENTER = 197.5170
MEAN_ANOMALY   = 162.5753

EPHEMERIS_TYPE = 0
CLASSIFICATION_TYPE = U
NORAD_CAT_ID   = 66957
ELEMENT_SET_NO = 999
REV_AT_EPOCH   = 20
BSTAR          = -.19874691E-3
MEAN_MOTION_DOT = -.156E-5
MEAN_MOTION_DDOT = 0

CCSDS_OMM_VERS = 2.0
CREATION_DATE  = 
ORIGINATOR     = 

OBJECT_NAME    = CZ-6A R/B
OBJECT_ID      = 2025-287F
CENTER_NAME    = EARTH
REF_FRAME      = TEME
TIME_SYSTEM    = UTC
MEAN_ELEMENT_THEORY = SGP/SGP4

EPOCH          = 2025-12-11T15:02:50.182080
MEAN_MOTION    = 13.94919270
ECCENTRICITY   = .01072101
INCLINATION    = 86.5058
RA_OF_ASC_NODE = 346.5238
ARG_OF_PERICENTER = 105.4934
MEAN_ANOMALY   = 255.8109

EPHEMERIS_TYPE = 0
CLASSIFICATION_TYPE = U
NORAD_CAT_ID   = 66958
ELEMENT_SET_NO = 999
REV_AT_EPOCH   = 38
BSTAR          = .30315333E-3
MEAN_MOTION_DOT = .446E-5
MEAN_MOTION_DDOT = 0

CCSDS_OMM_VERS = 2.0
CREATION_DATE  = 
ORIGINATOR     = 

OBJECT_NAME    = YAOGAN-47
OBJECT_ID      = 2025-289A
CENTER_NAME    = EARTH
REF_FRAME      = TEME
TIME_SYSTEM    = UTC
MEAN_ELEMENT_THEORY = SGP/SGP4

EPOCH          = 2025-12-11T14:58:29.248032
MEAN_MOTION    = 15.23120362
ECCENTRICITY   = .0000858
INCLINATION    = 97.5268
RA_OF_ASC_NODE = 50.7421
ARG_OF_PERICENTER = 73.6850
MEAN_ANOMALY   = 286.4480

EPHEMERIS_TYPE = 0
CLASSIFICATION_TYPE = U
NORAD_CAT_ID   = 66988
ELEMENT_SET_NO = 999
REV_AT_EPOCH   = 37
BSTAR          = .2492E-3
MEAN_MOTION_DOT = .5809E-4
MEAN_MOTION_DDOT = 0

CCSDS_OMM_VERS = 2.0
CREATION_DATE  = 
ORIGINATOR     = 

OBJECT_NAME    = CZ-4B R/B
OBJECT_ID      = 2025-289B
CENTER_NAME    = EARTH
REF_FRAME      = TEME
TIME_SYSTEM    = UTC
MEAN_ELEMENT_THEORY = SGP/SGP4

EPOCH          = 2025-12-10T14:28:25.343040
MEAN_MOTION    = 15.66312523
ECCENTRICITY   = .01519273
INCLINATION    = 97.5247
RA_OF_ASC_NODE = 49.7881
ARG_OF_PERICENTER = 11.1182
MEAN_ANOMALY   = 349.3371

EPHEMERIS_TYPE = 0
CLASSIFICATION_TYPE = U
NORAD_CAT_ID   = 66989
ELEMENT_SET_NO = 999
REV_AT_EPOCH   = 23
BSTAR          = .28721477E-3
MEAN_MOTION_DOT = .55635E-3
MEAN_MOTION_DDOT = .3061406E-5

CCSDS_OMM_VERS = 2.0
CREATION_DATE  = 
ORIGINATOR     = 

OBJECT_NAME    = TJS-22
OBJECT_ID      = 2025-290A
CENTER_NAME    = EARTH
REF_FRAME      = TEME
TIME_SYSTEM    = UTC
MEAN_ELEMENT_THEORY = SGP/SGP4

EPOCH          = 2025-12-10T07:11:32.845344
MEAN_MOTION    = 2.15443148
ECCENTRICITY   = .6664534
INCLINATION    = 20.1261
RA_OF_ASC_NODE = 301.1464
ARG_OF_PERICENTER = 180.6877
MEAN_ANOMALY   = 177.6237

EPHEMERIS_TYPE = 0
CLASSIFICATION_TYPE = U
NORAD_CAT_ID   = 66990
ELEMENT_SET_NO = 999
REV_AT_EPOCH   = 3
BSTAR          = .79788243E-1
MEAN_MOTION_DOT = -.38E-6
MEAN_MOTION_DDOT = 0

CCSDS_OMM_VERS = 2.0
CREATION_DATE  = 
ORIGINATOR     = 

OBJECT_NAME    = CZ-3B R/B
OBJECT_ID      = 2025-290B
CENTER_NAME    = EARTH
REF_FRAME      = TEME
TIME_SYSTEM    = UTC
MEAN_ELEMENT_THEORY = SGP/SGP4

EPOCH          = 2025-12-10T06:44:55.577184
MEAN_MOTION    = 2.37676924
ECCENTRICITY   = .72420555
INCLINATION    = 28.4645
RA_OF_ASC_NODE = 302.5976
ARG_OF_PERICENTER = 179.3847
MEAN_ANOMALY   = 182.8677

EPHEMERIS_TYPE = 0
CLASSIFICATION_TYPE = U
NORAD_CAT_ID   = 66991
ELEMENT_SET_NO = 999
REV_AT_EPOCH   = 3
BSTAR          = .43781284E-3
MEAN_MOTION_DOT = .18897E-3
MEAN_MOTION_DDOT = .456211E-6

CCSDS_OMM_VERS = 2.0
CREATION_DATE  = 
ORIGINATOR     = 

OBJECT_NAME    = 2025-292B
OBJECT_ID      = 2025-292B
CENTER_NAME    = EARTH
REF_FRAME      = TEME
TIME_SYSTEM    = UTC
MEAN_ELEMENT_THEORY = SGP/SGP4

EPOCH          = 2025-12-11T21:01:03.751968
MEAN_MOTION    = 15.04515803
ECCENTRICITY   = .0014079
INCLINATION    = 97.6549
RA_OF_ASC_NODE = 58.4345
ARG_OF_PERICENTER = 277.2072
MEAN_ANOMALY   = 82.7553

EPHEMERIS_TYPE = 0
CLASSIFICATION_TYPE = U
NORAD_CAT_ID   = 66994
ELEMENT_SET_NO = 999
REV_AT_EPOCH   = 26
BSTAR          = .10044E-3
MEAN_MOTION_DOT = .1347E-4
MEAN_MOTION_DDOT = 0

