HULIANWANG DIGUI-114    
1 66953U 25287A   25344.28842681  .00000025  00000+0  96496-5 0  9995
2 66953  86.4956 347.0512 0008244 213.3003 146.7638 13.69073793   194
HULIANWANG DIGUI-115    
1 66954U 25287B   25344.43449577  .00000026  00000+0  11008-4 0  9996
2 66954  86.4972 346.9997 0008195 212.0231 148.0431 13.69168852   212
HULIANWANG DIGUI-116    
1 66955U 25287C   25343.41133017  .00000020  00000+0  34705-5 0  9997
2 66955  86.4914 347.3632 0007632 209.8722 150.2003 13.69296672    70
HULIANWANG DIGUI-117    
1 66956U 25287D   25344.36118277  .00000026  00000+0  10798-4 0  9995
2 66956  86.4971 347.0263 0007071 199.7388 160.3499 13.69398761   201
HULIANWANG DIGUI-118    
1 66957U 25287E   25344.36107273 -.00000156  00000+0 -19875-3 0  9990
2 66957  86.4942 347.0238 0006899 197.5170 162.5753 13.69509074   202
CZ-6A R/B               
1 66958U 25287F   25345.62696970  .00000446  00000+0  30315-3 0  9990
2 66958  86.5058 346.5238 0107210 105.4934 255.8109 13.94919270   382
YAOGAN-47               
1 66988U 25289A   25345.62394963  .00005809  00000+0  24920-3 0  9995
2 66988  97.5268  50.7421 0000858  73.6850 286.4480 15.23120362   372
CZ-4B R/B               
1 66989U 25289B   25344.60307110  .00055635  30614-5  28721-3 0  9996
2 66989  97.5247  49.7881 0151927  11.1182 349.3371 15.66312523   239
TJS-22                  
1 66990U 25290A   25344.29968571 -.00000038  00000+0  79788-1 0  9994
2 66990  20.1261 301.1464 6664534 180.6877 177.6237  2.15443148    32
CZ-3B R/B               
1 66991U 25290B   25344.28119881  .00018897  45621-6  43781-3 0  9998
2 66991  28.4645 302.5976 7242055 179.3847 182.8677  2.37676924    36
2025-292B               
1 66994U 25292B   25345.87573787  .00001347  00000+0  10044-3 0  9991
2 66994  97.6549  58.4345 0014079 277.2072  82.7553 15.04515803   263
